[
  {
    "name": "SAT-030",
    "tle_line1": "1 99999U 24001A   24335.50000000  .00000000  00000-0  00000+0 0  9993",
    "tle_line2": "2 99999  74.5569   0.0000 0142935   0.0000   0.0000 15.00492654    03",
    "semi_major_axis": 6943.513095125962,
    "eccentricity": 0.0142935712657376,
    "inclination": 74.55693476445595
  },
  {
    "name": "SAT-031",
    "tle_line1": "1 99999U 24001A   24335.50000000  .00000000  00000-0  00000+0 0  9993",
    "tle_line2": "2 99999  48.3920   0.0000 0154422   0.0000   0.0000 13.43735710    05",
    "semi_major_axis": 7473.5326370833955,
    "eccentricity": 0.015442246881095764,
    "inclination": 48.39196844371029
  },
  {
    "name": "SAT-032",
    "tle_line1": "1 99999U 24001A   24335.50000000  .00000000  00000-0  00000+0 0  9993",
    "tle_line2": "2 99999   2.4911   0.0000 0086080   0.0000   0.0000 13.56307365    05",
    "semi_major_axis": 7427.2793952583925,
    "eccentricity": 0.008608066265335137,
    "inclination": 2.4910744209213282
  },
  {
    "name": "SAT-033",
    "tle_line1": "1 99999U 24001A   24335.50000000  .00000000  00000-0  00000+0 0  9993",
    "tle_line2": "2 99999  62.3682   0.0000 0007254   0.0000   0.0000 15.05056351    03",
    "semi_major_axis": 6929.469712391965,
    "eccentricity": 0.0007254407951660116,
    "inclination": 62.36822030385048
  },
  {
    "name": "SAT-034",
    "tle_line1": "1 99999U 24001A   24335.50000000  .00000000  00000-0  00000+0 0  9993",
    "tle_line2": "2 99999  88.9415   0.0000 0102205   0.0000   0.0000 14.27801134    03",
    "semi_major_axis": 7177.227177291592,
    "eccentricity": 0.010220556754177585,
    "inclination": 88.94151444475712
  },
  {
    "name": "SAT-035",
    "tle_line1": "1 99999U 24001A   24335.50000000  .00000000  00000-0  00000+0 0  9993",
    "tle_line2": "2 99999  74.0440   0.0000 0082666   0.0000   0.0000 14.51420227    02",
    "semi_major_axis": 7099.1506749786495,
    "eccentricity": 0.008266620168409032,
    "inclination": 74.04401157721877
  },
  {
    "name": "SAT-036",
    "tle_line1": "1 99999U 24001A   24335.50000000  .00000000  00000-0  00000+0 0  9993",
    "tle_line2": "2 99999  28.3956   0.0000 0016319   0.0000   0.0000 14.58995033    07",
    "semi_major_axis": 7074.557798589947,
    "eccentricity": 0.0016319002055929807,
    "inclination": 28.395642385549266
  },
  {
    "name": "SAT-037",
    "tle_line1": "1 99999U 24001A   24335.50000000  .00000000  00000-0  00000+0 0  9993",
    "tle_line2": "2 99999  79.1958   0.0000 0186009   0.0000   0.0000 14.84444971    06",
    "semi_major_axis": 6993.465544704805,
    "eccentricity": 0.018600983281617203,
    "inclination": 79.19579719731286
  },
  {
    "name": "SAT-038",
    "tle_line1": "1 99999U 24001A   24335.50000000  .00000000  00000-0  00000+0 0  9993",
    "tle_line2": "2 99999  78.7599   0.0000 0174420   0.0000   0.0000 13.20726180    00",
    "semi_major_axis": 7560.0845078125085,
    "eccentricity": 0.017442065744735582,
    "inclination": 78.75986353611322
  },
  {
    "name": "SAT-039",
    "tle_line1": "1 99999U 24001A   24335.50000000  .00000000  00000-0  00000+0 0  9993",
    "tle_line2": "2 99999  52.8555   0.0000 0178619   0.0000   0.0000 14.74812329    00",
    "semi_major_axis": 7023.884070663243,
    "eccentricity": 0.017861924069950557,
    "inclination": 52.85553970773377
  }
]